{
  "type": "FeatureCollection",
  "features": [
    {
      "type": "Feature",
      "properties": { "name": "Colombo", "id": "colombo" },
      "geometry": { "type": "Polygon", "coordinates": [[[79.85,6.85],[80.05,6.85],[80.05,7.0],[79.85,7.0],[79.85,6.85]]] }
    },
    {
      "type": "Feature",
      "properties": { "name": "Gampaha", "id": "gampaha" },
      "geometry": { "type": "Polygon", "coordinates": [[[79.85,7.0],[80.2,7.0],[80.2,7.25],[79.85,7.25],[79.85,7.0]]] }
    },
    {
      "type": "Feature",
      "properties": { "name": "Kalutara", "id": "kalutara" },
      "geometry": { "type": "Polygon", "coordinates": [[[79.85,6.4],[80.2,6.4],[80.2,6.85],[79.85,6.85],[79.85,6.4]]] }
    },
    {
      "type": "Feature",
      "properties": { "name": "Kandy", "id": "kandy" },
      "geometry": { "type": "Polygon", "coordinates": [[[80.2,7.1],[80.75,7.1],[80.75,7.45],[80.2,7.45],[80.2,7.1]]] }
    },
    {
      "type": "Feature",
      "properties": { "name": "Matale", "id": "matale" },
      "geometry": { "type": "Polygon", "coordinates": [[[80.4,7.45],[80.85,7.45],[80.85,7.85],[80.4,7.85],[80.4,7.45]]] }
    },
    {
      "type": "Feature",
      "properties": { "name": "Nuwara Eliya", "id": "nuwara-eliya" },
      "geometry": { "type": "Polygon", "coordinates": [[[80.55,6.85],[81.0,6.85],[81.0,7.1],[80.55,7.1],[80.55,6.85]]] }
    },
    {
      "type": "Feature",
      "properties": { "name": "Galle", "id": "galle" },
      "geometry": { "type": "Polygon", "coordinates": [[[79.95,5.95],[80.45,5.95],[80.45,6.2],[79.95,6.2],[79.95,5.95]]] }
    },
    {
      "type": "Feature",
      "properties": { "name": "Matara", "id": "matara" },
      "geometry": { "type": "Polygon", "coordinates": [[[80.45,5.9],[80.85,5.9],[80.85,6.15],[80.45,6.15],[80.45,5.9]]] }
    },
    {
      "type": "Feature",
      "properties": { "name": "Hambantota", "id": "hambantota" },
      "geometry": { "type": "Polygon", "coordinates": [[[80.85,6.05],[81.4,6.05],[81.4,6.4],[80.85,6.4],[80.85,6.05]]] }
    },
    {
      "type": "Feature",
      "properties": { "name": "Jaffna", "id": "jaffna" },
      "geometry": { "type": "Polygon", "coordinates": [[[79.8,9.4],[80.3,9.4],[80.3,9.85],[79.8,9.85],[79.8,9.4]]] }
    },
    {
      "type": "Feature",
      "properties": { "name": "Kilinochchi", "id": "kilinochchi" },
      "geometry": { "type": "Polygon", "coordinates": [[[80.1,9.0],[80.5,9.0],[80.5,9.4],[80.1,9.4],[80.1,9.0]]] }
    },
    {
      "type": "Feature",
      "properties": { "name": "Mannar", "id": "mannar" },
      "geometry": { "type": "Polygon", "coordinates": [[[79.8,8.75],[80.2,8.75],[80.2,9.25],[79.8,9.25],[79.8,8.75]]] }
    },
    {
      "type": "Feature",
      "properties": { "name": "Vavuniya", "id": "vavuniya" },
      "geometry": { "type": "Polygon", "coordinates": [[[80.2,8.65],[80.65,8.65],[80.65,9.05],[80.2,9.05],[80.2,8.65]]] }
    },
    {
      "type": "Feature",
      "properties": { "name": "Mullaitivu", "id": "mullaitivu" },
      "geometry": { "type": "Polygon", "coordinates": [[[80.5,8.9],[81.1,8.9],[81.1,9.35],[80.5,9.35],[80.5,8.9]]] }
    },
    {
      "type": "Feature",
      "properties": { "name": "Batticaloa", "id": "batticaloa" },
      "geometry": { "type": "Polygon", "coordinates": [[[81.3,7.55],[81.7,7.55],[81.7,8.15],[81.3,8.15],[81.3,7.55]]] }
    },
    {
      "type": "Feature",
      "properties": { "name": "Ampara", "id": "ampara" },
      "geometry": { "type": "Polygon", "coordinates": [[[81.2,7.05],[81.7,7.05],[81.7,7.55],[81.2,7.55],[81.2,7.05]]] }
    },
    {
      "type": "Feature",
      "properties": { "name": "Trincomalee", "id": "trincomalee" },
      "geometry": { "type": "Polygon", "coordinates": [[[81.0,8.1],[81.55,8.1],[81.55,8.7],[81.0,8.7],[81.0,8.1]]] }
    },
    {
      "type": "Feature",
      "properties": { "name": "Kurunegala", "id": "kurunegala" },
      "geometry": { "type": "Polygon", "coordinates": [[[80.0,7.4],[80.55,7.4],[80.55,7.85],[80.0,7.85],[80.0,7.4]]] }
    },
    {
      "type": "Feature",
      "properties": { "name": "Puttalam", "id": "puttalam" },
      "geometry": { "type": "Polygon", "coordinates": [[[79.75,7.85],[80.2,7.85],[80.2,8.3],[79.75,8.3],[79.75,7.85]]] }
    },
    {
      "type": "Feature",
      "properties": { "name": "Anuradhapura", "id": "anuradhapura" },
      "geometry": { "type": "Polygon", "coordinates": [[[80.05,8.0],[80.75,8.0],[80.75,8.65],[80.05,8.65],[80.05,8.0]]] }
    },
    {
      "type": "Feature",
      "properties": { "name": "Polonnaruwa", "id": "polonnaruwa" },
      "geometry": { "type": "Polygon", "coordinates": [[[80.75,7.8],[81.25,7.8],[81.25,8.25],[80.75,8.25],[80.75,7.8]]] }
    },
    {
      "type": "Feature",
      "properties": { "name": "Badulla", "id": "badulla" },
      "geometry": { "type": "Polygon", "coordinates": [[[80.95,6.75],[81.4,6.75],[81.4,7.1],[80.95,7.1],[80.95,6.75]]] }
    },
    {
      "type": "Feature",
      "properties": { "name": "Monaragala", "id": "monaragala" },
      "geometry": { "type": "Polygon", "coordinates": [[[81.0,6.4],[81.55,6.4],[81.55,6.85],[81.0,6.85],[81.0,6.4]]] }
    },
    {
      "type": "Feature",
      "properties": { "name": "Ratnapura", "id": "ratnapura" },
      "geometry": { "type": "Polygon", "coordinates": [[[80.3,6.35],[80.95,6.35],[80.95,6.85],[80.3,6.85],[80.3,6.35]]] }
    },
    {
      "type": "Feature",
      "properties": { "name": "Kegalle", "id": "kegalle" },
      "geometry": { "type": "Polygon", "coordinates": [[[80.1,7.0],[80.55,7.0],[80.55,7.35],[80.1,7.35],[80.1,7.0]]] }
    }
  ]
}
